[{"OBJECT_NAME":"STARLINK-3107","OBJECT_ID":"2021-082AT","EPOCH":"2026-03-09T21:59:27.140640","MEAN_MOTION":15.10504087,"ECCENTRICITY":0.00073375,"INCLINATION":69.9932,"RA_OF_ASC_NODE":287.3824,"ARG_OF_PERICENTER":250.2407,"MEAN_ANOMALY":109.7967,"EPHEMERIS_TYPE":0,"CLASSIFICATION_TYPE":"U","NORAD_CAT_ID":49171,"ELEMENT_SET_NO":999,"REV_AT_EPOCH":24733,"BSTAR":0.001517345,"MEAN_MOTION_DOT":0.00025048,"MEAN_MOTION_DDOT":0},{"OBJECT_NAME":"STARLINK-5134","OBJECT_ID":"2022-125N","EPOCH":"2026-03-09T15:19:52.432320","MEAN_MOTION":15.08839594,"ECCENTRICITY":0.0001085,"INCLINATION":53.2167,"RA_OF_ASC_NODE":204.4704,"ARG_OF_PERICENTER":87.3803,"MEAN_ANOMALY":272.7313,"EPHEMERIS_TYPE":0,"CLASSIFICATION_TYPE":"U","NORAD_CAT_ID":53976,"ELEMENT_SET_NO":999,"REV_AT_EPOCH":18959,"BSTAR":-1.5088e-5,"MEAN_MOTION_DOT":-5.28e-6,"MEAN_MOTION_DDOT":0}]
